"LGA","Title","Address","Address.2","Suburb","Postcode","Latitude","Longitude","Phone","Website","supply","program_title","purpose","website","category","skill"
"Balonne (S)","Care Balonne Community Support Service","84-86 Victoria St","","St George",4487,-28.035219,148.583589,"07 4625 5450","https://www.carebalonne.com/",NA,NA,NA,NA,NA,NA
"Blackall-Tambo (R)","Blackall Neighbourhood Centre","6 Coronation Drive","","Blackall",4472,-24.4246065,145.4648936,"07 4621 6600","http://www.btrc.qld.gov.au/blackall-neighbourhood-centre",NA,NA,NA,NA,NA,NA
"Boulia (S)","Boulia Community Support Service","Lot 606 Moonah St","","Boulia",4829,-22.908359,139.909389,"07 4746 3700","https://www.facebook.com/bouliacommunitysupportservices/",NA,NA,NA,NA,NA,NA
"Brisbane (C)","Acacia Ridge Community Centre","21 Hanify St","","Acacia Ridge",4110,-27.579754,153.019768,"07 3277 4893","https://belong.org.au/",NA,NA,NA,NA,NA,NA
"Brisbane (C)","Annerley Community Service","26 Devon Street","","Yeronga",4104,-27.51684,153.01617,"0488 084 633","https://communityplus.org.au/annerley-community-service/",NA,NA,NA,NA,NA,NA
"Brisbane (C)","Benarrawa Community Development Association","79 Waratah Ave","","Graceville",4075,-27.518651,152.985055,"07 3379 9925","https://www.facebook.com/Benarrawa/",NA,NA,NA,NA,NA,NA
"Brisbane (C)","Cannon Hill Community Centre","18 Lang St","","Cannon Hill",4170,-27.468426,153.080048,"07 3517 2424","https://www.ymcabrisbane.org/services/community-centres/cannon-hill",NA,NA,NA,NA,NA,NA
"Brisbane (C)","CO.AS.IT. Community Services Inc","473 Lutwyche Road","","Lutwyche",4010,-27.423892,153.03394,"07 3624 6100","http://www.coasit.asn.au/",NA,NA,NA,NA,NA,NA
"Brisbane (C)","East Brisbane Community Centre","538 Vulture St East","","East Brisbane",4169,-27.485346,153.043169,"07 3896 1300","http://ebcc.com.au/",NA,NA,NA,NA,NA,NA
"Brisbane (C)","Elorac Place Community Centre","11a Southampton Rd","","Ellen Grove",4078,-27.614864,152.938346,"07 3271 3592","https://www.wmq.org.au/youth-and-parenting-support/elorac-place-community-centre",NA,NA,NA,NA,NA,NA
"Brisbane (C)","Hub Neighbourhood Centre Inala","79 Poinsettia St","","Inala",4077,-27.5980503,152.9655576,"07 3372 3770","https://www.hubcommunity.org.au/",NA,NA,NA,NA,NA,NA
"Brisbane (C)","Inala Community House","20 Skylark St","","Inala",4077,-27.59931,152.98205,"07 3372 1711","http://www.ich.org.au/",NA,NA,NA,NA,NA,NA
"Brisbane (C)","Kyabra Community Centre","2a Kyabra St","","Runcorn",4113,-27.610107,153.069668,"07 3373 9499","http://www.kyabra.org/",NA,NA,NA,NA,NA,NA
"Brisbane (C)","Mt Gravatt Community Centre","1693 Logan Rd","","Upper Mount Gravatt",4122,-27.548287,153.079927,"07 3343 9833","https://www.mgcci.org.au/",NA,NA,NA,NA,NA,NA
"Brisbane (C)","Picabeen Community Centre","22 Hoben St","","Mitchelton",4053,-27.4137368,152.9721397,"07 3354 2555","http://www.picabeen.org.au/",NA,NA,NA,NA,NA,NA
"Brisbane (C)","New Farm Neighbourhood Centre","967 Brunswick St","","New Farm",4005,-27.469796,153.04897,"07 3358 5600","http://www.newfarmneighbourhood.org/",NA,NA,NA,NA,NA,NA
"Brisbane (C)","North West Community Hub","180 Jubilee Tce","","Bardon",4065,-27.456749,152.986425,"07 3198 4410","https://communify.org.au/neighbourhood-centre-program/#bardon",NA,NA,NA,NA,NA,NA
"Brisbane (C)","Nundah Neighbourhood Centre Program","14 Station St","","Nundah",4012,-27.401302,153.060492,"07 3260 6820","https://northsideconnect.org.au/neighbourhood-centre/",NA,NA,NA,NA,NA,NA
"Brisbane (C)","Sherwood Neighbourhood Centre","38 Thallon St","","Sherwood",4075,-27.53402,152.981098,"07 3379 6963","http://www.sherwoodnc.org.au/",NA,NA,NA,NA,NA,NA
"Brisbane (C)","The Community Place","20 Clark St","","Kalinga",4030,-27.411715,153.045996,"07 3857 1152","http://www.thecommunityplace.com.au/",NA,NA,NA,NA,NA,NA
"Brisbane (C)","Zillmere Community Centre","54 Handford Rd","","Zillmere",4034,-27.357599,153.038255,"07 3865 2880","http://www.necsg.org.au/",NA,NA,NA,NA,NA,NA
"Brisbane (C)","Sandgate and Bracken Ridge Action Group","153 Rainbow St","","Sandgate",4017,-27.322436,153.073428,"07 3869 3244","http://www.sandbag.org.au/",NA,NA,NA,NA,NA,NA
"Brisbane (C)","West End Community House","4 Norfolk Rd","","South Brisbane",4101,-27.476035,153.012364,"07 3217 2333","http://communityplus.org.au/west/",NA,NA,NA,NA,NA,NA
"Brisbane (C)","St David's Neighbourhood Centre","68 Orange Grove Rd","","Coopers Plains",4108,-27.56651,153.0389039,"07 3274 3240","http://www.stdavidsnc.org.au/",NA,NA,NA,NA,NA,NA
"Brisbane (C)","Yeronga Community Centre","26 Devon St","","Yeronga",4104,-27.51676,153.0167,"07 3848 2285","http://communityplus.org.au/yeronga/",NA,NA,NA,NA,NA,NA
"Brisbane (C)","Wynnum Neighbourhood and Community Centre","77 Charlotte St","","Wynnum",4178,-27.443496,153.171789,"07 3253 1700","",NA,NA,NA,NA,NA,NA
"Brisbane (C)","Vietnamese Community in Australia (Qld Chapter)","2709 Ipswich Rd","","Darra",4076,-27.572461,152.956579,"07 3375 6036","http://www.vcaqld.org.au/index.php/en/joomlaorg",NA,NA,NA,NA,NA,NA
"Bundaberg (R)","Bundaberg and District Neighbourhood Centre","111 Targo St","","Bundaberg South",4670,-24.87489,152.353649,"07 4153 1614","http://www.kenalwynbnc.org.au/",NA,NA,NA,NA,NA,NA
"Bundaberg (R)","Childers Neighbourhood Centre","69 Churchill St","","Childers",4660,-25.236133,152.277531,"07 4130 4690","https://www.bundaberg.qld.gov.au/neighbourhood-centres-1/childers-neighbourhood-centre",NA,NA,NA,NA,NA,NA
"Bundaberg (R)","Gin Gin Neighbourhood Centre","4 Dear St","","Gin Gin",4671,-24.989737,151.953643,"07 4130 4630","https://www.bundaberg.qld.gov.au/neighbourhood-centres-1/gin-gin-neighbourhood-centre",NA,NA,NA,NA,NA,NA
"Burdekin (S)","Burdekin Community Association Community Support Service","130 Queen St","The Support Centre - Old National Bank Building","Ayr",4807,-19.575358,147.406302,"07 4783 3744","http://www.burdekincommunityassociation.org.au/",NA,NA,NA,NA,NA,NA
"Burdekin (S)","Burdekin Neighbourhood Centre Association","40 Chippendale St","","Ayr",4807,-19.567064,147.411513,"07 4783 4243","http://thebnc.org.au/",NA,NA,NA,NA,NA,NA
"Cairns (R)","Hambledon House Community Centre","177 Bruce Hwy","","Edmonton",4869,-17.0171379,145.7436809,"07 4037 2874","https://hambledonhouse.com.au/",NA,NA,NA,NA,NA,NA
"Cairns (R)","Manoora Community Centre","29 Marchant St","","Manoora",4870,-16.920636,145.735572,"07 3367 4705","https://www.facebook.com/ManooraCC/",NA,NA,NA,NA,NA,NA
"Cairns (R)","Marlin Coast Neighbourhood Centre","205 Reed Rd","","Trinity Park",4879,-16.799198,145.708848,"07 4055 6440","http://www.mcnc.org.au/",NA,NA,NA,NA,NA,NA
"Cairns (R)","UnitingCare Community (Mooroobool Community Support Service)","98 Birch St","","Manunda",4870,-16.9266331,145.742739,"07 4032 6800","",NA,NA,NA,NA,NA,NA
"Carpentaria (S)","Normanton Neighbourhood and Community Centre","46 Dutton St","","Normanton",4890,-17.6744,141.07598,"07 4714 9030","",NA,NA,NA,NA,NA,NA
"Cassowary Coast (R)","Community Support Centre Innisfail","13-17 Donald St","","Innisfail",4860,-17.521646,146.024086,"07 4043 8400","http://www.csci.org.au/",NA,NA,NA,NA,NA,NA
"Cassowary Coast (R)","Tully Support Centre","54 Bryant St","","Tully",4854,-17.937042,145.923059,"07 4068 1004","https://tullysupportcentre.com.au/",NA,NA,NA,NA,NA,NA
"Central Highlands (R) (Qld)","Capella Tieri Middlemount Community Support Network","26 Talagai Ave","","Tieri",4709,-23.03484,148.34229,"07 4984 8349","",NA,NA,NA,NA,NA,NA
"Central Highlands (R) (Qld)","Emerald Neighbourhood Centre","17 Yamala St","","Emerald",4720,-23.522219,148.159981,"07 4982 1696","https://www.emeraldneighbourhoodcentre.org.au/",NA,NA,NA,NA,NA,NA
"Charters Towers (R)","Charters Towers Neighbourhood Centre","3 Powell Lane","","Charters Towers City",4820,-20.07757,146.257649,"07 4787 4797","https://www.prospect.org.au/",NA,NA,NA,NA,NA,NA
"Cherbourg (S)","Graham House Community Centre","21 Taylor St East","","Murgon",4605,-26.24679,151.942943,"07 4169 8400","http://grahamhouse.org.au/",NA,NA,NA,NA,NA,NA
"Cloncurry (S)","Cloncurry Neighbourhood Centre","57 Sheaffe St","","Cloncurry",4824,-20.706394,140.505009,"1300 672 273","https://www.centacarenq.org.au/centres/cloncurry/",NA,NA,NA,NA,NA,NA
"Cook (S)","Cooktown District Community Centre","11 Charles St","","Cooktown",4895,-15.480138,145.252896,"07 4069 6098","https://www.facebook.com/CooktownDCC/",NA,NA,NA,NA,NA,NA
"Cook (S)","Weipa Community Care Association","Lot 1 Hibberd Dve","","Rocky Point",4874,-12.623198,141.87729,"07 4069 9272","https://www.facebook.com/weipa.care/",NA,NA,NA,NA,NA,NA
"Douglas (S)","Mossman Community Centre","20 Mill St","","Mossman",4873,-16.458658,145.375632,"07 4098 2836","http://www.mossmansupportservices.org.au/",NA,NA,NA,NA,NA,NA
"Douglas (S)","Port Douglas Neighbourhood Centre","6-8 Mowbray St","","Port Douglas",4877,-16.484009,145.463355,"07 4099 5518","https://www.portdouglascommunityservicenetwork.org.au/",NA,NA,NA,NA,NA,NA
"Fraser Coast (R)","Hervey Bay Neighbourhood Centre","22-36 Charles St","","Pialba",4655,-25.281612,152.837059,"07 4194 3000","https://www.hbnc.com.au/",NA,NA,NA,NA,NA,NA
"Fraser Coast (R)","Maryborough Neighbourhood Centre","25 Ellena St","","Maryborough",4650,-25.5415935,152.7037512,"07 4121 2141","http://www.maryboroughneighbourhoodcentre.org/",NA,NA,NA,NA,NA,NA
"Gladstone (R)","Discovery Coast Community Support Service","71 Springs Rd","","Agnes Water",4677,-24.21153,151.910173,"0429 498 666","",NA,NA,NA,NA,NA,NA
"Gladstone (R)","Gladstone Community and Neighbourhood Centre","1 Pengelly St","","Gladstone",4680,-23.8697,151.25126,"07 4976 6300","https://conversations.gladstone.qld.gov.au/virtual-neighbourhood-centre",NA,NA,NA,NA,NA,NA
"Gold Coast (C)","Nerang Neighbourhood Centre","29 Martin St","","Nerang",4211,-27.988715,153.333162,"07 5578 2457","http://nncinc.com.au/",NA,NA,NA,NA,NA,NA
"Gold Coast (C)","Palm Beach Neighbourhood Centre","16 Third Ave","","Palm Beach",4221,-28.123819,153.473683,"07 5598 1505","http://www.palmbeachnc.org.au/",NA,NA,NA,NA,NA,NA
"Gold Coast (C)","Studio Village Community Centre","87 Village Way","","Oxenford",4210,-27.919303,153.316874,"07 5529 8253","https://www.studiovillage.com.au/",NA,NA,NA,NA,NA,NA
"Gold Coast (C)","Varsity Lakes Community Resource Centre","20-28 Mattocks Rd","","Varsity Lakes",4227,-28.097741,153.419423,"07 5593 7006","http://varsitylakes.org.au/",NA,NA,NA,NA,NA,NA
"Goondiwindi (R)","Care Goondiwindi Association","111 Callandoon","","Goondiwindi",4390,-28.54631,150.31343,"07 4670 0700","https://caregoondiwindi.org.au/",NA,NA,NA,NA,NA,NA
"Gympie (R)","Gympie Community Place","18 Excelsior Rd","","Gympie",4570,-26.19662,152.66654,"07 5482 1147","https://www.gcp.org.au/",NA,NA,NA,NA,NA,NA
"Hinchinbrook (S)","Hinchinbrook Community Support Centre","71 Townsville Rd","","Ingham",4850,-18.652794,146.153565,"07 4776 1822","http://www.hcsc.org.au/",NA,NA,NA,NA,NA,NA
"Ipswich (C)","Gailes Community House","30 Karina St","","Gailes",4300,-27.610353,152.919395,"07 3879 3004","http://www.gailescommunityhouse.com.au/",NA,NA,NA,NA,NA,NA
"Ipswich (C)","Goodna Neighbourhood House","33 Queen St","","Goodna",4300,-27.611938,152.896829,"07 3818 1648","https://www.facebook.com/goodnanh/",NA,NA,NA,NA,NA,NA
"Ipswich (C)","Leichhardt One Mile Community Centre","1-17 Denman St","","Leichhardt",4305,-27.626333,152.741312,"07 3812 1270","http://lcginc.org.au/",NA,NA,NA,NA,NA,NA
"Ipswich (C)","Riverview Community Centre","1/28 Mitchell St","","Riverview",4303,-27.598989,152.846904,"07 3816 2111","https://www.facebook.com/RiverviewCommunityCentre",NA,NA,NA,NA,NA,NA
"Ipswich (C)","Rosewood Community Centre","19 School St","","Rosewood",4340,-27.643911,152.594295,"07 5464 1544","https://radsc.org.au/",NA,NA,NA,NA,NA,NA
"Isaac (R)","Coastal Community Development Service","36 Macartney St","","St Lawrence",4707,-22.346026,149.53664,"07 4964 5400","",NA,NA,NA,NA,NA,NA
"Isaac (R)","Dysart Community Support Group Inc","21 Queen Elizabeth Dve","","Dysart",4745,-22.590945,148.348418,"07 4958 2461","https://www.facebook.com/Dysart-Community-Support-Group-298820770889042/",NA,NA,NA,NA,NA,NA
"Isaac (R)","Moranbah Youth and Community Centre","2 Appleton Street","","Moranbah",4744,-22.000528,148.050091,"07 4941 5164","https://www.mdssmoranbah.com.au/neighborhood-centre-program",NA,NA,NA,NA,NA,NA
"Livingstone (S)","Livingstone Shire Council - Community Centre","80 John St","","Yeppoon",4703,-23.130886,150.740976,"07 4913 3840","http://www.livingstone.qld.gov.au/communitycentre",NA,NA,NA,NA,NA,NA
"Lockyer Valley (R)","Laidley Community Centre","13 Mary St","","Laidley",4341,-27.63905,152.393098,"07 5465 1889","https://laidleycc.org.au/",NA,NA,NA,NA,NA,NA
"Lockyer Valley (R)","Lockyer Community Centre","14 Crescent St","","Gatton",4343,-27.554836,152.276773,"07 5462 3355","https://www.lockyercommunitycentre.org.au/",NA,NA,NA,NA,NA,NA
"Logan (C)","Beenleigh Neighbourhood Centre","10 James St","","Beenleigh",4207,-27.7172417,153.2009612,"07 3287 2840","http://beenleigh.org.au/",NA,NA,NA,NA,NA,NA
"Logan (C)","Crestmead Community Centre","1 Gimlet St","","Crestmead",4132,-27.689197,153.092232,"07 3805 4100","https://www.pcyc.org.au/clubs/pcyc-crestmead/",NA,NA,NA,NA,NA,NA
"Logan (C)","Eagleby Neighbourhood Centre","94-112 Fryar Rd","","Eagleby",4207,-27.705799,153.211944,"07 3151 6132","https://www.wmq.org.au/youth-and-parenting-support/eagleby-neighbourhood-centre",NA,NA,NA,NA,NA,NA
"Logan (C)","Kingston East Neighbourhood Group","177-185 Meakin Rd","","Slacks Creek",4127,-27.646556,153.136227,"07 3808 1684","http://www.keng.org.au/",NA,NA,NA,NA,NA,NA
"Logan (C)","Logan East Community Neighbourhood Centre","53-57 Cinderella Dve","","Springwood",4127,-27.613262,153.129064,"07 3808 4529","http://lecna.org.au/",NA,NA,NA,NA,NA,NA
"Logan (C)","Multilink Community Services - Neighbourhood Centre Program","38 Blackwood Rd","Blackwood Arcade","Logan Central",4114,-27.637016,153.103887,"07 3808 4463","http://www.multilink.org.au/project/neighbourhood-centre-program/",NA,NA,NA,NA,NA,NA
"Mackay (R)","George Street Neighbourhood Hub","4 George St","","Mackay",4740,-21.150644,149.183749,"07 4957 2626","http://tnhub.org.au/",NA,NA,NA,NA,NA,NA
"Mackay (R)","Sarina Neighbourhood Centre","65 Broad St","","Sarina",4737,-21.421322,149.216133,"07 4961 9290 / 4961 9283","https://www.mackay.qld.gov.au/facilities/spaces/sarina_neighbourhood_centre",NA,NA,NA,NA,NA,NA
"Maranoa (R)","Maranoa Community Support Service","57 Bungil St","","Roma",4455,-26.5687735,148.7880766,"07 4624 0808","https://www.maranoa.qld.gov.au/",NA,NA,NA,NA,NA,NA
"Mareeba (S)","Kuranda Neighbourhood Centre","6 Rob Veivers Dve","","Kuranda",4881,-16.820124,145.633727,"07 4093 8933","http://kurandanc.com/",NA,NA,NA,NA,NA,NA
"Mareeba (S)","Mareeba Community Centre","39b Byrnes St","","Mareeba",4880,-16.988211,145.42152,"07 4092 1948","http://www.mccinc.org.au/",NA,NA,NA,NA,NA,NA
"Moreton Bay (R)","Redcliffe Neighbourhood Centre","1 Lamington Dve","","Redcliffe",4020,-27.227152,153.108415,"07 3284 3081","https://encircle.org.au/redcliffe-neighbourhood-centre/","High supply","Indigenous VET Partnership","The Indigenous VET Partnerships will invest in accredited training and assessment services that will improve employment outcomes for Aboriginal and Torres Strait Islanders across the state. Initiatives and programs will need to show value for money and clear pathways to employment.","https://training.qld.gov.au/community-orgs/funded/vet-partnership","Aboriginal and Torres Strait Islanders",26
"Moreton Bay (R)","Redcliffe Neighbourhood Centre","1 Lamington Dve","","Redcliffe",4020,-27.227152,153.108415,"07 3284 3081","https://encircle.org.au/redcliffe-neighbourhood-centre/","High supply","Creating Your Future Job","To determine if self-employment is a viable and valid pathway for those job seekers who are seeking to apply their innovative commercial skills, as well as recognising the importance of fostering those that seek to pursue this pathway.  Supporting these jobseekers can lead to stronger businesses that in turn may lead to further local job creation. ","https://desbt.qld.gov.au/","Jobseekers",26
"Moreton Bay (R)","Redcliffe Neighbourhood Centre","1 Lamington Dve","","Redcliffe",4020,-27.227152,153.108415,"07 3284 3081","https://encircle.org.au/redcliffe-neighbourhood-centre/","High supply","Online Infection Control Training Fund","Australian Government have provided $8.04m funding (matching state appropriation of $8.04m) for infection prevention and control training in customer-facing business to keep safe from COVID-19","https://desbt.qld.gov.au/training/training-careers/incentives/infection-control","Businesses",26
"Moreton Bay (R)","Redcliffe Neighbourhood Centre","1 Lamington Dve","","Redcliffe",4020,-27.227152,153.108415,"07 3284 3081","https://encircle.org.au/redcliffe-neighbourhood-centre/","High supply","National Partnerships Job Trainer Fund","The JobTrainer Fund was announced on 16 July 2020 as part of the Australian Government’s $2 billion JobTrainer Skills Package.  The JobTrainer Fund will provide up to 340,700 additional training places that are free or low fee, in areas of identified skills need for job seekers and young people, including school leavers.","https://desbt.qld.gov.au/training/training-careers/incentives/jobtrainer/job-seekers","Individuals",26
"Moreton Bay (R)","Redcliffe Neighbourhood Centre","1 Lamington Dve","","Redcliffe",4020,-27.227152,153.108415,"07 3284 3081","https://encircle.org.au/redcliffe-neighbourhood-centre/","High supply","FSF - Pre-Apprenticeship Support","Supporting the pathway from apprentice to qualified tradesperson, including services that: focus on supporting existing apprentices who have lost their jobs; increasing the number of tradespeople through alternative apprenticeship pathways; and linking targeted pre-apprenticeship training to attainment of an apprenticeship in a priority industry. A portion of the program may also form part of Queensland's contribution to the JobTrainer Fund.

The initiative includes $4.5 million to continue the SchoolTech program, which is a collaboration between TAFE Queensland, Woree State High School, and Skill360 (a registered group training organisation). The program supports eligible students to achieve a Queensland Certificate of Education through a combination of school learning, VET delivery, and work placement.","https://desbt.qld.gov.au/training/future-skills-fund","Individuals",26
"Moreton Bay (R)","Redcliffe Neighbourhood Centre","1 Lamington Dve","","Redcliffe",4020,-27.227152,153.108415,"07 3284 3081","https://encircle.org.au/redcliffe-neighbourhood-centre/","High supply","Job Finder Queensland","A new online portal that will connect Queenslanders who have lost their jobs due to COVID-19 with new job opportunities.The online portal will allow Queenslanders who are looking for work to provide information on their skills, location and work experience","https://desbt.qld.gov.au/","Individuals",26
"Moreton Bay (R)","Redcliffe Neighbourhood Centre","1 Lamington Dve","","Redcliffe",4020,-27.227152,153.108415,"07 3284 3081","https://encircle.org.au/redcliffe-neighbourhood-centre/","High supply","FSF - Workforce Transition Support Strategy","Future Skills Funding for Workforce Transition Support Program - $5m in 2020-21 (previously Regional Skills Adjustment Strategy)
Allocation of $5 million to support employers and workers to transition local workforce skills to take advantage of new or emerging industries during Queensland's economic recovery. The Program will focus on regional centres facing closure of major industries or emerging new industries seeking local skilled labour. TAFE Queensland Industry Liaison Officers will engage with companies that are closing and work with employees to provide career counselling, job search preparation, and training to enable them to get new jobs and link them to other opportunities. The Program will support emerging growth industries to get existing and new staff trained and allow for the delivery of non-accredited training. The Program was previously run as the Regional Skills Adjustment Strategy.","https://desbt.qld.gov.au/training/future-skills-fund","Individuals",26
"Moreton Bay (R)","Redcliffe Neighbourhood Centre","1 Lamington Dve","","Redcliffe",4020,-27.227152,153.108415,"07 3284 3081","https://encircle.org.au/redcliffe-neighbourhood-centre/","High supply","Indigenous VET Partnership","The Indigenous VET Partnerships will invest in accredited training and assessment services that will improve employment outcomes for Aboriginal and Torres Strait Islanders across the state. Initiatives and programs will need to show value for money and clear pathways to employment.","https://training.qld.gov.au/community-orgs/funded/vet-partnership","Students",26
"Moreton Bay (R)","Redcliffe Neighbourhood Centre","1 Lamington Dve","","Redcliffe",4020,-27.227152,153.108415,"07 3284 3081","https://encircle.org.au/redcliffe-neighbourhood-centre/","High supply","Indigenous VET Partnership","The Indigenous VET Partnerships will invest in accredited training and assessment services that will improve employment outcomes for Aboriginal and Torres Strait Islanders across the state. Initiatives and programs will need to show value for money and clear pathways to employment.","https://training.qld.gov.au/community-orgs/funded/vet-partnership","Employees",26
"Moreton Bay (R)","Bribie Island Neighbourhood Centre","9 Verdoni St","","Bellara",4507,-27.064283,153.153121,"07 3408 8440","","High supply","Indigenous VET Partnership","The Indigenous VET Partnerships will invest in accredited training and assessment services that will improve employment outcomes for Aboriginal and Torres Strait Islanders across the state. Initiatives and programs will need to show value for money and clear pathways to employment.","https://training.qld.gov.au/community-orgs/funded/vet-partnership","Aboriginal and Torres Strait Islanders",26
"Moreton Bay (R)","Bribie Island Neighbourhood Centre","9 Verdoni St","","Bellara",4507,-27.064283,153.153121,"07 3408 8440","","High supply","Creating Your Future Job","To determine if self-employment is a viable and valid pathway for those job seekers who are seeking to apply their innovative commercial skills, as well as recognising the importance of fostering those that seek to pursue this pathway.  Supporting these jobseekers can lead to stronger businesses that in turn may lead to further local job creation. ","https://desbt.qld.gov.au/","Jobseekers",26
"Moreton Bay (R)","Bribie Island Neighbourhood Centre","9 Verdoni St","","Bellara",4507,-27.064283,153.153121,"07 3408 8440","","High supply","Online Infection Control Training Fund","Australian Government have provided $8.04m funding (matching state appropriation of $8.04m) for infection prevention and control training in customer-facing business to keep safe from COVID-19","https://desbt.qld.gov.au/training/training-careers/incentives/infection-control","Businesses",26
"Moreton Bay (R)","Bribie Island Neighbourhood Centre","9 Verdoni St","","Bellara",4507,-27.064283,153.153121,"07 3408 8440","","High supply","National Partnerships Job Trainer Fund","The JobTrainer Fund was announced on 16 July 2020 as part of the Australian Government’s $2 billion JobTrainer Skills Package.  The JobTrainer Fund will provide up to 340,700 additional training places that are free or low fee, in areas of identified skills need for job seekers and young people, including school leavers.","https://desbt.qld.gov.au/training/training-careers/incentives/jobtrainer/job-seekers","Individuals",26
"Moreton Bay (R)","Bribie Island Neighbourhood Centre","9 Verdoni St","","Bellara",4507,-27.064283,153.153121,"07 3408 8440","","High supply","FSF - Pre-Apprenticeship Support","Supporting the pathway from apprentice to qualified tradesperson, including services that: focus on supporting existing apprentices who have lost their jobs; increasing the number of tradespeople through alternative apprenticeship pathways; and linking targeted pre-apprenticeship training to attainment of an apprenticeship in a priority industry. A portion of the program may also form part of Queensland's contribution to the JobTrainer Fund.

The initiative includes $4.5 million to continue the SchoolTech program, which is a collaboration between TAFE Queensland, Woree State High School, and Skill360 (a registered group training organisation). The program supports eligible students to achieve a Queensland Certificate of Education through a combination of school learning, VET delivery, and work placement.","https://desbt.qld.gov.au/training/future-skills-fund","Individuals",26
"Moreton Bay (R)","Bribie Island Neighbourhood Centre","9 Verdoni St","","Bellara",4507,-27.064283,153.153121,"07 3408 8440","","High supply","Job Finder Queensland","A new online portal that will connect Queenslanders who have lost their jobs due to COVID-19 with new job opportunities.The online portal will allow Queenslanders who are looking for work to provide information on their skills, location and work experience","https://desbt.qld.gov.au/","Individuals",26
"Moreton Bay (R)","Bribie Island Neighbourhood Centre","9 Verdoni St","","Bellara",4507,-27.064283,153.153121,"07 3408 8440","","High supply","FSF - Workforce Transition Support Strategy","Future Skills Funding for Workforce Transition Support Program - $5m in 2020-21 (previously Regional Skills Adjustment Strategy)
Allocation of $5 million to support employers and workers to transition local workforce skills to take advantage of new or emerging industries during Queensland's economic recovery. The Program will focus on regional centres facing closure of major industries or emerging new industries seeking local skilled labour. TAFE Queensland Industry Liaison Officers will engage with companies that are closing and work with employees to provide career counselling, job search preparation, and training to enable them to get new jobs and link them to other opportunities. The Program will support emerging growth industries to get existing and new staff trained and allow for the delivery of non-accredited training. The Program was previously run as the Regional Skills Adjustment Strategy.","https://desbt.qld.gov.au/training/future-skills-fund","Individuals",26
"Moreton Bay (R)","Bribie Island Neighbourhood Centre","9 Verdoni St","","Bellara",4507,-27.064283,153.153121,"07 3408 8440","","High supply","Indigenous VET Partnership","The Indigenous VET Partnerships will invest in accredited training and assessment services that will improve employment outcomes for Aboriginal and Torres Strait Islanders across the state. Initiatives and programs will need to show value for money and clear pathways to employment.","https://training.qld.gov.au/community-orgs/funded/vet-partnership","Students",26
"Moreton Bay (R)","Bribie Island Neighbourhood Centre","9 Verdoni St","","Bellara",4507,-27.064283,153.153121,"07 3408 8440","","High supply","Indigenous VET Partnership","The Indigenous VET Partnerships will invest in accredited training and assessment services that will improve employment outcomes for Aboriginal and Torres Strait Islanders across the state. Initiatives and programs will need to show value for money and clear pathways to employment.","https://training.qld.gov.au/community-orgs/funded/vet-partnership","Employees",26
"Moreton Bay (R)","Pine Rivers Neighbourhood Centre","865 Gympie Rd","","Lawnton",4501,-27.278452,152.982358,"07 3889 0063","https://encircle.org.au/pine-rivers-neighbourhood-centre/","High supply","Indigenous VET Partnership","The Indigenous VET Partnerships will invest in accredited training and assessment services that will improve employment outcomes for Aboriginal and Torres Strait Islanders across the state. Initiatives and programs will need to show value for money and clear pathways to employment.","https://training.qld.gov.au/community-orgs/funded/vet-partnership","Aboriginal and Torres Strait Islanders",26
"Moreton Bay (R)","Pine Rivers Neighbourhood Centre","865 Gympie Rd","","Lawnton",4501,-27.278452,152.982358,"07 3889 0063","https://encircle.org.au/pine-rivers-neighbourhood-centre/","High supply","Creating Your Future Job","To determine if self-employment is a viable and valid pathway for those job seekers who are seeking to apply their innovative commercial skills, as well as recognising the importance of fostering those that seek to pursue this pathway.  Supporting these jobseekers can lead to stronger businesses that in turn may lead to further local job creation. ","https://desbt.qld.gov.au/","Jobseekers",26
"Moreton Bay (R)","Pine Rivers Neighbourhood Centre","865 Gympie Rd","","Lawnton",4501,-27.278452,152.982358,"07 3889 0063","https://encircle.org.au/pine-rivers-neighbourhood-centre/","High supply","Online Infection Control Training Fund","Australian Government have provided $8.04m funding (matching state appropriation of $8.04m) for infection prevention and control training in customer-facing business to keep safe from COVID-19","https://desbt.qld.gov.au/training/training-careers/incentives/infection-control","Businesses",26
"Moreton Bay (R)","Pine Rivers Neighbourhood Centre","865 Gympie Rd","","Lawnton",4501,-27.278452,152.982358,"07 3889 0063","https://encircle.org.au/pine-rivers-neighbourhood-centre/","High supply","National Partnerships Job Trainer Fund","The JobTrainer Fund was announced on 16 July 2020 as part of the Australian Government’s $2 billion JobTrainer Skills Package.  The JobTrainer Fund will provide up to 340,700 additional training places that are free or low fee, in areas of identified skills need for job seekers and young people, including school leavers.","https://desbt.qld.gov.au/training/training-careers/incentives/jobtrainer/job-seekers","Individuals",26
"Moreton Bay (R)","Pine Rivers Neighbourhood Centre","865 Gympie Rd","","Lawnton",4501,-27.278452,152.982358,"07 3889 0063","https://encircle.org.au/pine-rivers-neighbourhood-centre/","High supply","FSF - Pre-Apprenticeship Support","Supporting the pathway from apprentice to qualified tradesperson, including services that: focus on supporting existing apprentices who have lost their jobs; increasing the number of tradespeople through alternative apprenticeship pathways; and linking targeted pre-apprenticeship training to attainment of an apprenticeship in a priority industry. A portion of the program may also form part of Queensland's contribution to the JobTrainer Fund.

The initiative includes $4.5 million to continue the SchoolTech program, which is a collaboration between TAFE Queensland, Woree State High School, and Skill360 (a registered group training organisation). The program supports eligible students to achieve a Queensland Certificate of Education through a combination of school learning, VET delivery, and work placement.","https://desbt.qld.gov.au/training/future-skills-fund","Individuals",26
"Moreton Bay (R)","Pine Rivers Neighbourhood Centre","865 Gympie Rd","","Lawnton",4501,-27.278452,152.982358,"07 3889 0063","https://encircle.org.au/pine-rivers-neighbourhood-centre/","High supply","Job Finder Queensland","A new online portal that will connect Queenslanders who have lost their jobs due to COVID-19 with new job opportunities.The online portal will allow Queenslanders who are looking for work to provide information on their skills, location and work experience","https://desbt.qld.gov.au/","Individuals",26
"Moreton Bay (R)","Pine Rivers Neighbourhood Centre","865 Gympie Rd","","Lawnton",4501,-27.278452,152.982358,"07 3889 0063","https://encircle.org.au/pine-rivers-neighbourhood-centre/","High supply","FSF - Workforce Transition Support Strategy","Future Skills Funding for Workforce Transition Support Program - $5m in 2020-21 (previously Regional Skills Adjustment Strategy)
Allocation of $5 million to support employers and workers to transition local workforce skills to take advantage of new or emerging industries during Queensland's economic recovery. The Program will focus on regional centres facing closure of major industries or emerging new industries seeking local skilled labour. TAFE Queensland Industry Liaison Officers will engage with companies that are closing and work with employees to provide career counselling, job search preparation, and training to enable them to get new jobs and link them to other opportunities. The Program will support emerging growth industries to get existing and new staff trained and allow for the delivery of non-accredited training. The Program was previously run as the Regional Skills Adjustment Strategy.","https://desbt.qld.gov.au/training/future-skills-fund","Individuals",26
"Moreton Bay (R)","Pine Rivers Neighbourhood Centre","865 Gympie Rd","","Lawnton",4501,-27.278452,152.982358,"07 3889 0063","https://encircle.org.au/pine-rivers-neighbourhood-centre/","High supply","Indigenous VET Partnership","The Indigenous VET Partnerships will invest in accredited training and assessment services that will improve employment outcomes for Aboriginal and Torres Strait Islanders across the state. Initiatives and programs will need to show value for money and clear pathways to employment.","https://training.qld.gov.au/community-orgs/funded/vet-partnership","Students",26
"Moreton Bay (R)","Pine Rivers Neighbourhood Centre","865 Gympie Rd","","Lawnton",4501,-27.278452,152.982358,"07 3889 0063","https://encircle.org.au/pine-rivers-neighbourhood-centre/","High supply","Indigenous VET Partnership","The Indigenous VET Partnerships will invest in accredited training and assessment services that will improve employment outcomes for Aboriginal and Torres Strait Islanders across the state. Initiatives and programs will need to show value for money and clear pathways to employment.","https://training.qld.gov.au/community-orgs/funded/vet-partnership","Employees",26
"Moreton Bay (R)","Caboolture Neighbourhood Centre","9 George St","","Caboolture",4510,-27.083784,152.94914,"07 5428 1404","http://www.caboolturenhc.com.au/","High supply","Indigenous VET Partnership","The Indigenous VET Partnerships will invest in accredited training and assessment services that will improve employment outcomes for Aboriginal and Torres Strait Islanders across the state. Initiatives and programs will need to show value for money and clear pathways to employment.","https://training.qld.gov.au/community-orgs/funded/vet-partnership","Aboriginal and Torres Strait Islanders",26
"Moreton Bay (R)","Caboolture Neighbourhood Centre","9 George St","","Caboolture",4510,-27.083784,152.94914,"07 5428 1404","http://www.caboolturenhc.com.au/","High supply","Creating Your Future Job","To determine if self-employment is a viable and valid pathway for those job seekers who are seeking to apply their innovative commercial skills, as well as recognising the importance of fostering those that seek to pursue this pathway.  Supporting these jobseekers can lead to stronger businesses that in turn may lead to further local job creation. ","https://desbt.qld.gov.au/","Jobseekers",26
"Moreton Bay (R)","Caboolture Neighbourhood Centre","9 George St","","Caboolture",4510,-27.083784,152.94914,"07 5428 1404","http://www.caboolturenhc.com.au/","High supply","Online Infection Control Training Fund","Australian Government have provided $8.04m funding (matching state appropriation of $8.04m) for infection prevention and control training in customer-facing business to keep safe from COVID-19","https://desbt.qld.gov.au/training/training-careers/incentives/infection-control","Businesses",26
"Moreton Bay (R)","Caboolture Neighbourhood Centre","9 George St","","Caboolture",4510,-27.083784,152.94914,"07 5428 1404","http://www.caboolturenhc.com.au/","High supply","National Partnerships Job Trainer Fund","The JobTrainer Fund was announced on 16 July 2020 as part of the Australian Government’s $2 billion JobTrainer Skills Package.  The JobTrainer Fund will provide up to 340,700 additional training places that are free or low fee, in areas of identified skills need for job seekers and young people, including school leavers.","https://desbt.qld.gov.au/training/training-careers/incentives/jobtrainer/job-seekers","Individuals",26
"Moreton Bay (R)","Caboolture Neighbourhood Centre","9 George St","","Caboolture",4510,-27.083784,152.94914,"07 5428 1404","http://www.caboolturenhc.com.au/","High supply","FSF - Pre-Apprenticeship Support","Supporting the pathway from apprentice to qualified tradesperson, including services that: focus on supporting existing apprentices who have lost their jobs; increasing the number of tradespeople through alternative apprenticeship pathways; and linking targeted pre-apprenticeship training to attainment of an apprenticeship in a priority industry. A portion of the program may also form part of Queensland's contribution to the JobTrainer Fund.

The initiative includes $4.5 million to continue the SchoolTech program, which is a collaboration between TAFE Queensland, Woree State High School, and Skill360 (a registered group training organisation). The program supports eligible students to achieve a Queensland Certificate of Education through a combination of school learning, VET delivery, and work placement.","https://desbt.qld.gov.au/training/future-skills-fund","Individuals",26
"Moreton Bay (R)","Caboolture Neighbourhood Centre","9 George St","","Caboolture",4510,-27.083784,152.94914,"07 5428 1404","http://www.caboolturenhc.com.au/","High supply","Job Finder Queensland","A new online portal that will connect Queenslanders who have lost their jobs due to COVID-19 with new job opportunities.The online portal will allow Queenslanders who are looking for work to provide information on their skills, location and work experience","https://desbt.qld.gov.au/","Individuals",26
"Moreton Bay (R)","Caboolture Neighbourhood Centre","9 George St","","Caboolture",4510,-27.083784,152.94914,"07 5428 1404","http://www.caboolturenhc.com.au/","High supply","FSF - Workforce Transition Support Strategy","Future Skills Funding for Workforce Transition Support Program - $5m in 2020-21 (previously Regional Skills Adjustment Strategy)
Allocation of $5 million to support employers and workers to transition local workforce skills to take advantage of new or emerging industries during Queensland's economic recovery. The Program will focus on regional centres facing closure of major industries or emerging new industries seeking local skilled labour. TAFE Queensland Industry Liaison Officers will engage with companies that are closing and work with employees to provide career counselling, job search preparation, and training to enable them to get new jobs and link them to other opportunities. The Program will support emerging growth industries to get existing and new staff trained and allow for the delivery of non-accredited training. The Program was previously run as the Regional Skills Adjustment Strategy.","https://desbt.qld.gov.au/training/future-skills-fund","Individuals",26
"Moreton Bay (R)","Caboolture Neighbourhood Centre","9 George St","","Caboolture",4510,-27.083784,152.94914,"07 5428 1404","http://www.caboolturenhc.com.au/","High supply","Indigenous VET Partnership","The Indigenous VET Partnerships will invest in accredited training and assessment services that will improve employment outcomes for Aboriginal and Torres Strait Islanders across the state. Initiatives and programs will need to show value for money and clear pathways to employment.","https://training.qld.gov.au/community-orgs/funded/vet-partnership","Students",26
"Moreton Bay (R)","Caboolture Neighbourhood Centre","9 George St","","Caboolture",4510,-27.083784,152.94914,"07 5428 1404","http://www.caboolturenhc.com.au/","High supply","Indigenous VET Partnership","The Indigenous VET Partnerships will invest in accredited training and assessment services that will improve employment outcomes for Aboriginal and Torres Strait Islanders across the state. Initiatives and programs will need to show value for money and clear pathways to employment.","https://training.qld.gov.au/community-orgs/funded/vet-partnership","Employees",26
"Moreton Bay (R)","Kallangur Neighbourhood Centre","51 Marsden Rd","","Kallangur",4503,-27.24968,152.98226,"07 3465 3200","https://www.facebook.com/KallangurNeigbourhoodCentre","High supply","Indigenous VET Partnership","The Indigenous VET Partnerships will invest in accredited training and assessment services that will improve employment outcomes for Aboriginal and Torres Strait Islanders across the state. Initiatives and programs will need to show value for money and clear pathways to employment.","https://training.qld.gov.au/community-orgs/funded/vet-partnership","Aboriginal and Torres Strait Islanders",26
"Moreton Bay (R)","Kallangur Neighbourhood Centre","51 Marsden Rd","","Kallangur",4503,-27.24968,152.98226,"07 3465 3200","https://www.facebook.com/KallangurNeigbourhoodCentre","High supply","Creating Your Future Job","To determine if self-employment is a viable and valid pathway for those job seekers who are seeking to apply their innovative commercial skills, as well as recognising the importance of fostering those that seek to pursue this pathway.  Supporting these jobseekers can lead to stronger businesses that in turn may lead to further local job creation. ","https://desbt.qld.gov.au/","Jobseekers",26
"Moreton Bay (R)","Kallangur Neighbourhood Centre","51 Marsden Rd","","Kallangur",4503,-27.24968,152.98226,"07 3465 3200","https://www.facebook.com/KallangurNeigbourhoodCentre","High supply","Online Infection Control Training Fund","Australian Government have provided $8.04m funding (matching state appropriation of $8.04m) for infection prevention and control training in customer-facing business to keep safe from COVID-19","https://desbt.qld.gov.au/training/training-careers/incentives/infection-control","Businesses",26
"Moreton Bay (R)","Kallangur Neighbourhood Centre","51 Marsden Rd","","Kallangur",4503,-27.24968,152.98226,"07 3465 3200","https://www.facebook.com/KallangurNeigbourhoodCentre","High supply","National Partnerships Job Trainer Fund","The JobTrainer Fund was announced on 16 July 2020 as part of the Australian Government’s $2 billion JobTrainer Skills Package.  The JobTrainer Fund will provide up to 340,700 additional training places that are free or low fee, in areas of identified skills need for job seekers and young people, including school leavers.","https://desbt.qld.gov.au/training/training-careers/incentives/jobtrainer/job-seekers","Individuals",26
"Moreton Bay (R)","Kallangur Neighbourhood Centre","51 Marsden Rd","","Kallangur",4503,-27.24968,152.98226,"07 3465 3200","https://www.facebook.com/KallangurNeigbourhoodCentre","High supply","FSF - Pre-Apprenticeship Support","Supporting the pathway from apprentice to qualified tradesperson, including services that: focus on supporting existing apprentices who have lost their jobs; increasing the number of tradespeople through alternative apprenticeship pathways; and linking targeted pre-apprenticeship training to attainment of an apprenticeship in a priority industry. A portion of the program may also form part of Queensland's contribution to the JobTrainer Fund.

The initiative includes $4.5 million to continue the SchoolTech program, which is a collaboration between TAFE Queensland, Woree State High School, and Skill360 (a registered group training organisation). The program supports eligible students to achieve a Queensland Certificate of Education through a combination of school learning, VET delivery, and work placement.","https://desbt.qld.gov.au/training/future-skills-fund","Individuals",26
"Moreton Bay (R)","Kallangur Neighbourhood Centre","51 Marsden Rd","","Kallangur",4503,-27.24968,152.98226,"07 3465 3200","https://www.facebook.com/KallangurNeigbourhoodCentre","High supply","Job Finder Queensland","A new online portal that will connect Queenslanders who have lost their jobs due to COVID-19 with new job opportunities.The online portal will allow Queenslanders who are looking for work to provide information on their skills, location and work experience","https://desbt.qld.gov.au/","Individuals",26
"Moreton Bay (R)","Kallangur Neighbourhood Centre","51 Marsden Rd","","Kallangur",4503,-27.24968,152.98226,"07 3465 3200","https://www.facebook.com/KallangurNeigbourhoodCentre","High supply","FSF - Workforce Transition Support Strategy","Future Skills Funding for Workforce Transition Support Program - $5m in 2020-21 (previously Regional Skills Adjustment Strategy)
Allocation of $5 million to support employers and workers to transition local workforce skills to take advantage of new or emerging industries during Queensland's economic recovery. The Program will focus on regional centres facing closure of major industries or emerging new industries seeking local skilled labour. TAFE Queensland Industry Liaison Officers will engage with companies that are closing and work with employees to provide career counselling, job search preparation, and training to enable them to get new jobs and link them to other opportunities. The Program will support emerging growth industries to get existing and new staff trained and allow for the delivery of non-accredited training. The Program was previously run as the Regional Skills Adjustment Strategy.","https://desbt.qld.gov.au/training/future-skills-fund","Individuals",26
"Moreton Bay (R)","Kallangur Neighbourhood Centre","51 Marsden Rd","","Kallangur",4503,-27.24968,152.98226,"07 3465 3200","https://www.facebook.com/KallangurNeigbourhoodCentre","High supply","Indigenous VET Partnership","The Indigenous VET Partnerships will invest in accredited training and assessment services that will improve employment outcomes for Aboriginal and Torres Strait Islanders across the state. Initiatives and programs will need to show value for money and clear pathways to employment.","https://training.qld.gov.au/community-orgs/funded/vet-partnership","Students",26
"Moreton Bay (R)","Kallangur Neighbourhood Centre","51 Marsden Rd","","Kallangur",4503,-27.24968,152.98226,"07 3465 3200","https://www.facebook.com/KallangurNeigbourhoodCentre","High supply","Indigenous VET Partnership","The Indigenous VET Partnerships will invest in accredited training and assessment services that will improve employment outcomes for Aboriginal and Torres Strait Islanders across the state. Initiatives and programs will need to show value for money and clear pathways to employment.","https://training.qld.gov.au/community-orgs/funded/vet-partnership","Employees",26
"Moreton Bay (R)","Deception Bay Neighbourhood Centre","D24 Endeavour St","","Deception Bay",4508,-27.184408,153.026318,"07 3204 2022","http://www.dbnc.org.au/","High supply","Indigenous VET Partnership","The Indigenous VET Partnerships will invest in accredited training and assessment services that will improve employment outcomes for Aboriginal and Torres Strait Islanders across the state. Initiatives and programs will need to show value for money and clear pathways to employment.","https://training.qld.gov.au/community-orgs/funded/vet-partnership","Aboriginal and Torres Strait Islanders",26
"Moreton Bay (R)","Deception Bay Neighbourhood Centre","D24 Endeavour St","","Deception Bay",4508,-27.184408,153.026318,"07 3204 2022","http://www.dbnc.org.au/","High supply","Creating Your Future Job","To determine if self-employment is a viable and valid pathway for those job seekers who are seeking to apply their innovative commercial skills, as well as recognising the importance of fostering those that seek to pursue this pathway.  Supporting these jobseekers can lead to stronger businesses that in turn may lead to further local job creation. ","https://desbt.qld.gov.au/","Jobseekers",26
"Moreton Bay (R)","Deception Bay Neighbourhood Centre","D24 Endeavour St","","Deception Bay",4508,-27.184408,153.026318,"07 3204 2022","http://www.dbnc.org.au/","High supply","Online Infection Control Training Fund","Australian Government have provided $8.04m funding (matching state appropriation of $8.04m) for infection prevention and control training in customer-facing business to keep safe from COVID-19","https://desbt.qld.gov.au/training/training-careers/incentives/infection-control","Businesses",26
"Moreton Bay (R)","Deception Bay Neighbourhood Centre","D24 Endeavour St","","Deception Bay",4508,-27.184408,153.026318,"07 3204 2022","http://www.dbnc.org.au/","High supply","National Partnerships Job Trainer Fund","The JobTrainer Fund was announced on 16 July 2020 as part of the Australian Government’s $2 billion JobTrainer Skills Package.  The JobTrainer Fund will provide up to 340,700 additional training places that are free or low fee, in areas of identified skills need for job seekers and young people, including school leavers.","https://desbt.qld.gov.au/training/training-careers/incentives/jobtrainer/job-seekers","Individuals",26
"Moreton Bay (R)","Deception Bay Neighbourhood Centre","D24 Endeavour St","","Deception Bay",4508,-27.184408,153.026318,"07 3204 2022","http://www.dbnc.org.au/","High supply","FSF - Pre-Apprenticeship Support","Supporting the pathway from apprentice to qualified tradesperson, including services that: focus on supporting existing apprentices who have lost their jobs; increasing the number of tradespeople through alternative apprenticeship pathways; and linking targeted pre-apprenticeship training to attainment of an apprenticeship in a priority industry. A portion of the program may also form part of Queensland's contribution to the JobTrainer Fund.

The initiative includes $4.5 million to continue the SchoolTech program, which is a collaboration between TAFE Queensland, Woree State High School, and Skill360 (a registered group training organisation). The program supports eligible students to achieve a Queensland Certificate of Education through a combination of school learning, VET delivery, and work placement.","https://desbt.qld.gov.au/training/future-skills-fund","Individuals",26
"Moreton Bay (R)","Deception Bay Neighbourhood Centre","D24 Endeavour St","","Deception Bay",4508,-27.184408,153.026318,"07 3204 2022","http://www.dbnc.org.au/","High supply","Job Finder Queensland","A new online portal that will connect Queenslanders who have lost their jobs due to COVID-19 with new job opportunities.The online portal will allow Queenslanders who are looking for work to provide information on their skills, location and work experience","https://desbt.qld.gov.au/","Individuals",26
"Moreton Bay (R)","Deception Bay Neighbourhood Centre","D24 Endeavour St","","Deception Bay",4508,-27.184408,153.026318,"07 3204 2022","http://www.dbnc.org.au/","High supply","FSF - Workforce Transition Support Strategy","Future Skills Funding for Workforce Transition Support Program - $5m in 2020-21 (previously Regional Skills Adjustment Strategy)
Allocation of $5 million to support employers and workers to transition local workforce skills to take advantage of new or emerging industries during Queensland's economic recovery. The Program will focus on regional centres facing closure of major industries or emerging new industries seeking local skilled labour. TAFE Queensland Industry Liaison Officers will engage with companies that are closing and work with employees to provide career counselling, job search preparation, and training to enable them to get new jobs and link them to other opportunities. The Program will support emerging growth industries to get existing and new staff trained and allow for the delivery of non-accredited training. The Program was previously run as the Regional Skills Adjustment Strategy.","https://desbt.qld.gov.au/training/future-skills-fund","Individuals",26
"Moreton Bay (R)","Deception Bay Neighbourhood Centre","D24 Endeavour St","","Deception Bay",4508,-27.184408,153.026318,"07 3204 2022","http://www.dbnc.org.au/","High supply","Indigenous VET Partnership","The Indigenous VET Partnerships will invest in accredited training and assessment services that will improve employment outcomes for Aboriginal and Torres Strait Islanders across the state. Initiatives and programs will need to show value for money and clear pathways to employment.","https://training.qld.gov.au/community-orgs/funded/vet-partnership","Students",26
"Moreton Bay (R)","Deception Bay Neighbourhood Centre","D24 Endeavour St","","Deception Bay",4508,-27.184408,153.026318,"07 3204 2022","http://www.dbnc.org.au/","High supply","Indigenous VET Partnership","The Indigenous VET Partnerships will invest in accredited training and assessment services that will improve employment outcomes for Aboriginal and Torres Strait Islanders across the state. Initiatives and programs will need to show value for money and clear pathways to employment.","https://training.qld.gov.au/community-orgs/funded/vet-partnership","Employees",26
"Mount Isa (C)","Brilla Brilla Centre (Community Support Service)","1 Violet St","","Healy",4825,-20.739235,139.494793,"07 4743 7671","",NA,NA,NA,NA,NA,NA
"Mount Isa (C)","Mt Isa Neighbourhood Centre","72 Marian St","","Mount Isa",4825,-20.725639,139.499051,"07 4743 4506","https://www.facebook.com/mountisaneighbourhoodcentre/",NA,NA,NA,NA,NA,NA
"Murweh (S)","Charleville Neighbourhood Centre","114-118  Alfred St","","Charleville",4470,-26.400514,146.2415615,"07 4654 1307","https://neighbourhoodcentre.wixsite.com/cdcsai",NA,NA,NA,NA,NA,NA
"Noosa (S)","Pomona and District Community House","1 Memorial Ave","","Pomona",4568,-26.365622,152.85543,"07 5485 2427","https://www.pomonacommunityhouse.com.au/",NA,NA,NA,NA,NA,NA
"North Burnett (R)","Monto Neighbourhood Centre","7 Huxley St","","Monto",4630,-24.864151,151.128742,"07 4994 2508","https://www.qld.livebetter.org.au/monto-services",NA,NA,NA,NA,NA,NA
"North Burnett (R)","North Burnett Community Service Neighbourhood Centre","69 Stuart-Russell St","","Mundubbera",4626,-25.586609,151.288391,"07 4165 4690","https://www.nbcs.org.au",NA,NA,NA,NA,NA,NA
"Northern Peninsula Area (R)","Northern Peninsula Area Family and Community Services","255 Adidi St","","Bamaga",4876,-10.8888745,142.3879775,"07 4212 2000","http://www.npaws.com.au/",NA,NA,NA,NA,NA,NA
"Paroo (S)","Paroo Community Support Service","51 Stockyard St","","Cunnamulla",4490,-28.071215,145.681961,"07 4655 8400","",NA,NA,NA,NA,NA,NA
"Redland (C)","Bay Islands Community Services","55 Jackson Rd","","Russell Island",4184,-27.658954,153.371791,"07 3409 1177","https://bics.org.au/",NA,NA,NA,NA,NA,NA
"Redland (C)","Redland Community Centre","29 Loraine St","","Capalaba",4157,-27.522451,153.1923,"07 3245 2117","http://redlandcommunitycentre.org/",NA,NA,NA,NA,NA,NA
"Scenic Rim (R)","Beaudesert Community Centre","44 Tina St","","Beaudesert",4285,-27.988909,153.001686,"07 5541 4216","http://www.beaucare.org.au/community-services.html",NA,NA,NA,NA,NA,NA
"Scenic Rim (R)","Fassifern Community Centre","4 Little High St","","Boonah",4310,-27.99778,152.68218,"07 5463 2966","https://carinity.org.au/our-services/youth-families/community-centre-meeting-spaces/fassifern-community-centre/",NA,NA,NA,NA,NA,NA
"Somerset (R)","Somerset Region Neighbourhood Centre","82 Ipswich St","","Esk",4312,-27.2418128,152.4233689,"07 5424 4000","",NA,NA,NA,NA,NA,NA
"South Burnett (R)","Centacare Family and Relationship Services  Kingaroy","15 Albert St","","Kingaroy",4610,-26.536998,151.840948,"07 4162 5439","https://centacare.com/location/centacare-family-and-relationship-services-kingaroy/",NA,NA,NA,NA,NA,NA
"Southern Downs (R)","Granite Belt Neighbourhood Place","8 Corundum St","","Stanthorpe",4380,-28.652252,151.935623,"07 4681 3777","https://mysd.com.au/cds/",NA,NA,NA,NA,NA,NA
"Sunshine Coast (R)","Caloundra Community Centre","58a Queen St","","Caloundra",4551,-26.794403,153.130271,"07 5491 4000","https://www.caloundracommunitycentre.org/",NA,NA,NA,NA,NA,NA
"Sunshine Coast (R)","Maroochy Neighbourhood Centre","2 Fifth Ave","","Maroochydore",4558,-26.657007,153.100977,"07 5443 6696","http://maroochync.org.au/",NA,NA,NA,NA,NA,NA
"Sunshine Coast (R)","Maleny Neighbourhood Centre","17 Bicentenary Lane","","Maleny",4552,-26.7595143,152.8497524,"07 5499 9345","http://www.malenync.org.au/",NA,NA,NA,NA,NA,NA
"Sunshine Coast (R)","Hinterland Community Development Worker Program","58 Queen St","","Caloundra",4551,-26.7944286,153.1303494,"07 5491 4000","https://www.caloundracommunitycentre.org/hinterland-community-development-program",NA,NA,NA,NA,NA,NA
"Sunshine Coast (R)","Nambour Community Centre","2 Shearer St","","Nambour",4560,-26.628044,152.962897,"07 5441 4724","http://www.nambourcc.org/",NA,NA,NA,NA,NA,NA
"Tablelands (R)","Better Together Community Support","38 Mabel Street","","Atherton",4883,-17.26653,145.477406,"07 4091 3850","http://www.cst.org.au/",NA,NA,NA,NA,NA,NA
"Tablelands (R)","ECHO Neighbourhood House","11-15 Eacham Place","","Malanda",4885,-17.354556,145.592632,"07 4096 6634","https://www.echomalanda.org.au/",NA,NA,NA,NA,NA,NA
"Tablelands (R)","Ravenshoe Community Centre","3 Bolton St","","Ravenshoe",4888,-17.61335,145.480595,"07 4097 6726","http://www.ravenshoecommunitycentre.org.au/",NA,NA,NA,NA,NA,NA
"Toowoomba (R)","East Creek Community Centre","43 Kitchener St","","East Toowoomba",4350,-27.568872,151.963185,"07 4639 2755","http://eastcreek.com.au/",NA,NA,NA,NA,NA,NA
"Toowoomba (R)","Harlaxton Neighbourhood Centre","17d Coonan St","","Harlaxton",4350,-27.526215,151.955924,"07 4639 2868","https://harlaxtonnc.wixsite.com/website",NA,NA,NA,NA,NA,NA
"Toowoomba (R)","Millmerran Shire Community Support Service","32 Campbell St","","Millmerran",4357,-27.876612,151.269818,"07 4695 1829","",NA,NA,NA,NA,NA,NA
"Toowoomba (R)","Wilsonton Heights Neighbourhood Centre","14-16 Wine Dve","","Wilsonton Heights",4350,-27.531383,151.930873,"07 4634 7672","https://heightscommunitycentre.wordpress.com/",NA,NA,NA,NA,NA,NA
"Torres (S)","Thursday Island Neighbourhood Centre","156 Douglas St","","Thursday Island",4875,-10.58674,142.21236,"07 4069 1663","",NA,NA,NA,NA,NA,NA
"Townsville (C)","Garbutt Community Centre","15 Lonerganne St","","Garbutt",4814,-19.263584,146.782142,"07 4779 7268","https://communitygro.org.au/our-community/garbutt-community-centre/",NA,NA,NA,NA,NA,NA
"Townsville (C)","North Townsville Community Hub","52 Palm Dve","","Deeragun",4818,-19.2452634,146.674211,"07 4751 6511","https://notchdeeragun.weebly.com/",NA,NA,NA,NA,NA,NA
"Townsville (C)","Rollingstone and District Community Association","44 Community Cres","","Balgal Beach",4816,-19.044413,146.408157,"07 4770 7855","https://www.rollingstonecommunityassociation.com/",NA,NA,NA,NA,NA,NA
"Townsville (C)","Upper Ross Community Centre","43 Allambie Lane","","Rasmussen",4815,-19.3641818,146.726996,"07 4774 0144","https://communitygro.org.au/our-community/upper-ross-community-centre/",NA,NA,NA,NA,NA,NA
"Western Downs (R)","Chinchilla Community Centre","71 Middle St","","Chinchilla",4413,-26.7428658,150.6271319,"07 4662 8528","https://www.chinchillacommunitycentre.org/",NA,NA,NA,NA,NA,NA
"Western Downs (R)","Murilla Community Centre","73a Murilla St","","Miles",4415,-26.659166,150.186183,"07 4627 2027","https://www.mccm.org.au/",NA,NA,NA,NA,NA,NA
"Western Downs (R)","Tara Neighbourhood Centre","49 Day St","","Tara",4421,-27.276317,150.456515,"07 4665 3508","http://www.taranc.com.au/",NA,NA,NA,NA,NA,NA
"Whitsunday (R)","Bowen Neighbourhood Centre","20 Williams St","","Bowen",4805,-20.012083,148.248102,"07 4786 2111","http://bowenneighbourhoodcentre.org.au/",NA,NA,NA,NA,NA,NA
"Whitsunday (R)","Collinsville Community Association","81 Garrick St","Collinsville Hospital","Collinsville",4804,-20.5464542,147.8375859,"07 4785 5965","https://www.facebook.com/collinsvillecommunityassociation/",NA,NA,NA,NA,NA,NA
"Whitsunday (R)","Proserpine Community Centre","36 Gardenia St","","Proserpine",4800,-20.400254,148.583882,"07 4945 5915","https://www.facebook.com/Proserpine-Community-Centre-158843667528276/",NA,NA,NA,NA,NA,NA
"Whitsunday (R)","Whitsunday Neighbourhood Centre","Lot 2 Hazelwood Cres","","Cannonvale",4802,-20.279317,148.698354,"07 4946 7850","https://www.whitnc.org.au/",NA,NA,NA,NA,NA,NA
"Winton (S)","Winton Neighbourhood Centre","75 Elderslie St","","Winton",4735,-22.39047,143.03651,"07 4657 2688","",NA,NA,NA,NA,NA,NA
